#dP2024 12 16  0  0  0.00000000      96 __u+U IGS20 FIT  IAC
## 2345  86400.00000000   900.00000000 60660 0.0000000000000
+   52   G02G03G04G05G06G07G08G09G10G11G12G13G14G15G16G17G18
+        G19G20G21G22G23G24G25G26G27G28G29G30G31G32R01R02R03
+        R04R05R07R08R09R11R12R14R15R16R17R18R19R20R21R22R24
+        R26  0  0  0  0  0  0  0  0  0  0  0  0  0  0  0  0
+          0  0  0  0  0  0  0  0  0  0  0  0  0  0  0  0  0
++         5  6  6  5  5  5  5  6  6  5  6  5  5  5  6  7  6
++         5  4  6  5  6  6  5  6  5  5  7  5  6  5  8  6  7
++         7  7  8  8  6  6  6  5  7  5  6  7  6  5  7  5  6
++         6  0  0  0  0  0  0  0  0  0  0  0  0  0  0  0  0
++         0  0  0  0  0  0  0  0  0  0  0  0  0  0  0  0  0
%c M  cc GPS ccc cccc cccc cccc cccc ccccc ccccc ccccc ccccc
%c cc cc ccc ccc cccc cccc cccc cccc ccccc ccccc ccccc ccccc
%f  0.0000000  0.000000000  0.00000000000  0.000000000000000
%f  0.0000000  0.000000000  0.00000000000  0.000000000000000
%i    0    0    0    0      0      0      0      0         0
%i    0    0    0    0      0      0      0      0         0
/* INFORMATION & ANALYSIS CENTER (IAC)      ULTRA-RAPID DATA
/* S/V CLOCKS ARE ALIGNED TO GNSS TIME                      
/* G:C1WC2W R:C1PC2P E:C1XC5X C:C2IC6I J:C1CC2S             
/* PCV:IGS20_2317 OL/AL:FES2004  NONE     YN ORB:CoN CLK:CoN
*  2024 12 16  9 30  0.00000000
PG02 -14322.901774  22006.227582   2716.073105   -290.786040
PG03 -11975.092420  12519.174627 -20261.984155    625.682530
PG04  -3853.567390  20004.917721 -16942.693331    496.696328
PG05  24242.894510  -5724.873015   9136.322625   -196.163634
PG06  12908.652466   6892.690811 -22097.215923    -48.073706
PG07  -2969.243305  22455.325814  14031.892385    -15.446053
PG08 -11906.383809  10048.737982  21345.523893    439.650719
PG09   4376.879679  24047.044020 -10398.990303    489.231718
PG10 -20528.944943 -10524.064730  13689.419376   -236.573987
PG11  19206.020800  -5810.392439 -17328.826197   -752.653093
PG12  16087.503689 -10790.538142 -18440.321088   -558.674853
PG13  15255.788695   -491.238489  21527.539674    690.145783
PG14  17173.216993  12971.533365  15762.640312    561.196419
PG15  10131.950798 -12126.722954  20813.128288    240.199664
PG16 -26323.593370   -811.279517   4620.727442   -101.976196
PG17  13082.058669  22356.104021  -4948.455000    516.886197
PG18   1840.913112 -21263.151767  15694.570876   -660.231499
PG19  16380.385075  15569.423549 -14434.523234    574.532203
PG20  26291.765860   -843.930663  -3002.022278    367.851506
PG21 -16780.413715  17968.087243   8840.747034     96.374165
PG22  22329.728635  10486.658096   9805.912416    -86.670758
PG23  -6966.742219 -14471.714845  21238.884804    384.572581
PG24  14506.265929 -21619.584734   3547.883899   -473.028304
PG25   1378.313838 -15578.969433 -21819.467808    498.037114
PG26 -25474.077261  -4682.613480  -6922.690629    -10.814914
PG27 -16950.289893  -2291.837966  20126.575402    -34.133916
PG28 -12290.484822  -9025.901599 -21762.388045   -509.597298
PG29  -2297.931466 -24403.701473 -10117.758068   -555.495310
PG30   7370.460735  15757.162893  20154.015966   -260.196324
PG31 -18028.438663   1176.502227 -19830.321825   -219.870252
PG32 -16174.479507 -19459.176418  -8188.733530   -558.184034
PR01  17199.721632   3662.320945  18480.686191    107.952262
PR02   5091.370123  -9898.551788  23000.506337    -39.094852
PR03  -9992.654320 -18672.656672  14314.029548    113.351978
PR04 -18844.871458 -17110.005025  -1813.993953    268.686732
PR05 -17861.642612  -6488.537670 -17022.084578    142.258667
PR07  10247.851804  18695.192762 -13920.663834     97.033437
PR08  19100.025228  16734.603776   2222.689846     -6.103326
PR09 -17806.337374  12788.452449  12983.741151    226.533882
PR11  14479.422397   5599.268410  20250.994262      4.454486
PR12  24562.549159  -5189.938214   4494.920949     48.478248
PR14   1640.721063 -11963.676689 -22465.176301     27.438646
PR15 -15996.139853  -4850.020134 -19253.446517     73.138397
PR16 -24514.642866   5214.821735  -4644.736671     31.673030
PR17   1864.049191 -23966.261942   8487.101332    148.989761
PR18  -6157.952229 -13660.998765  20679.763348    177.086652
PR19 -11105.955904   1322.238181  22933.337565   -302.092708
PR20 -10862.724824  20719.291441  10138.329003   -123.298682
PR21  -2737.341526  24279.411750  -7368.118580   -159.982589
PR22   6793.807426  12700.239173 -21017.687696    -43.408853
PR24   9862.689922 -21489.088462  -9525.650144    -84.275282
PR26  18683.531518  17377.902589    261.630575   -132.701197
*  2024 12 16  9 45  0.00000000
PG02 -14360.593021  21509.016771   5553.139760   -290.778110
PG03 -14174.767728  12343.445650 -18883.014230    625.690208
PG04  -4879.972842  18235.073114 -18606.202729    496.701873
PG05  25155.586587  -5536.046180   6445.733453   -196.165446
PG06  11523.709251   9018.076826 -22087.327903    -48.099395
PG07  -3927.724966  23525.611721  11730.468049    -15.444957
PG08 -13188.250054   7919.032992  21527.111854    439.658771
PG09   3536.777867  23007.923721 -12816.417717    489.246214
PG10 -18888.655358 -10569.262168  15850.630506   -236.587734
PG11  18136.539847  -4018.354473 -18918.206993   -752.653307
PG12  18025.353965 -10442.515121 -16739.264089   -558.677007
PG13  16053.622476   1846.378939  20892.121311    690.147477
PG14  15272.524475  13042.738089  17542.430639    561.203239
PG15  11679.937347 -10143.247663  21068.618529    240.203755
PG16 -26696.882611  -1080.015574   1822.661856   -101.967769
PG17  13037.186578  22873.699747  -2107.973934    516.872166
PG18   2899.966833 -22570.441215  13538.281247   -660.231074
PG19  16789.553030  17007.486673 -12178.346412    574.536139
PG20  25821.533626   -498.890288  -5797.866489    367.851349
PG21 -16532.200436  16813.672309  11421.729208     96.376418
PG22  21088.415514  10567.837536  12282.249958    -86.673030
PG23  -4518.299644 -14483.815406  21864.294567    384.579478
PG24  14554.055026 -20900.408186   6294.398028   -473.025523
PG25   3789.282142 -15508.959170 -21554.626239    498.036725
PG26 -24578.726062  -5013.833065  -9481.080757    -10.827677
PG27 -17959.443874  -4342.239922  18933.812978    -34.133653
PG28 -11024.683355 -11146.418258 -21454.981580   -509.606902
PG29  -1587.714352 -23301.072853 -12577.205293   -555.492635
PG30   6075.624431  17575.570429  19018.393510   -260.189004
PG31 -16849.204497   -766.377297 -20841.269100   -219.869773
PG32 -16363.818493 -20272.091488  -5483.429936   -558.178522
PR01  18914.569950   4965.025847  16382.584434    107.953350
PR02   7186.167478  -7981.273370  23180.169555    -39.094799
PR03  -8654.826640 -17312.327295  16698.370112    113.351619
PR04 -18991.050554 -16990.955005   1414.058778    268.688693
PR05 -19399.459411  -7708.030008 -14671.881219    142.259834
PR07   8926.405215  17354.943550 -16351.906829     97.034339
PR08  19261.151601  16655.820050  -1001.153181     -6.103174
PR09 -19122.621151  13357.736530  10239.357478    226.535569
PR11  12021.332769   6383.452153  21582.411912      4.453369
PR12  23817.940468  -5071.098214   7587.424901     48.478694
PR14   4196.751933 -12891.240649 -21605.302763     27.438388
PR15 -13632.954372  -5585.455371 -20809.055340     73.137999
PR16 -23743.419484   5103.793152  -7742.819947     31.672986
PR17   1869.696585 -24840.533998   5403.715873    148.992519
PR18  -5726.424645 -16069.979770  19006.362335    177.088156
PR19 -10371.185584  -1434.666516  23267.843215   -302.094986
PR20 -10323.189043  19386.391198  12955.082963   -123.300868
PR21  -2703.701234  25021.640658  -4237.809899   -159.985509
PR22   6256.927397  15151.061296 -19507.882232    -43.420375
PR24   9459.968186 -20189.548706 -12352.028138    -84.276613
PR26  18669.410524  17138.484421  -2954.367349   -132.700824
EOF
